TDRS 3                  
1 19548U 88091B   24153.90221917 -.00000305  00000+0  00000+0 0  9996
2 19548  13.1744 346.0328 0034879 342.5881 198.1188  1.00276654117890
HST                     
1 20580U 90037B   24154.12690863  .00006453  00000+0  30339-3 0  9993
2 20580  28.4684  86.0170 0002433 230.7982 129.2394 15.17542954675005
TDRS 5                  
1 21639U 91054B   24153.40137035 -.00000307  00000+0  00000+0 0  9997
2 21639  14.1652 359.2269 0002274 238.1125  95.4593  1.00274863120239
TDRS 6                  
1 22314U 93003B   24153.99628374 -.00000302  00000+0  00000+0 0  9994
2 22314  14.1629   2.5275 0010803 147.6769  53.4242  1.00266992114900
TDRS 7                  
1 23613U 95035B   24153.76782931 -.00000208  00000+0  00000+0 0  9994
2 23613  13.6883 353.3424 0028880  68.0027 190.5447  1.00277038105676
ISS (ZARYA)             
1 25544U 98067A   24154.14112138  .00020290  00000+0  35270-3 0  9999
2 25544  51.6394  29.8703 0005731 264.9342 230.1734 15.50772906456215
LANDSAT 7               
1 25682U 99020A   24154.22105420  .00000640  00000+0  14039-3 0  9994
2 25682  97.8881 181.7159 0001730  83.4123 350.1575 14.60675221337014
TERRA                   
1 25994U 99068A   24154.13977449  .00000706  00000+0  15716-3 0  9996
2 25994  98.0485 218.0690 0003158  69.8078 319.8210 14.59787116300978
TDRS 8                  
1 26388U 00034A   24153.41160494  .00000094  00000+0  00000+0 0  9999
2 26388  11.5187  37.4008 0002470 292.6017 260.9867  1.00265935 87693
TIMED                   
1 26998U 01055B   24153.81976761  .00001934  00000+0  19764-3 0  9991
2 26998  74.0705 291.9475 0001711 309.3935  50.7096 14.91363071219675
AQUA                    
1 27424U 02022A   24154.15155390  .00001347  00000+0  29483-3 0  9993
2 27424  98.3299 103.4652 0001848 105.5987 311.6030 14.59334096174525
TDRS 10                 
1 27566U 02055A   24153.51275253  .00000087  00000+0  00000+0 0  9996
2 27566   9.5351  45.5178 0006551 342.9668 235.4171  1.00272103 78752
SORCE                   
1 27651U 03004A   24154.19876141  .00002970  00000+0  27828-3 0  9998
2 27651  39.9916 167.7259 0019991 134.0042 226.2400 14.95074855160023
AURA                    
1 28376U 04026A   24153.86727207  .00001312  00000+0  29173-3 0  9993
2 28376  98.2506  98.8103 0002173  94.3784 265.7663 14.58621203 57486
SWIFT                   
1 28485U 04047A   24153.60844010  .00011987  00000+0  53384-3 0  9991
2 28485  20.5562 292.7288 0009452  73.5496 286.5979 15.18792522 71805
THEMIS A                
1 30580U 07004A   24151.25077929 -.00000405  00000+0  00000+0 0  9999
2 30580  10.1765 266.4518 8342627 317.2186   2.6139  0.87834306 34704
THEMIS D                
1 30797U 07004D   24151.22845348 -.00000417  00000+0  00000+0 0  9997
2 30797   6.0845 262.7563 8334326 324.6957 343.4321  0.87835520 58918
THEMIS E                
1 30798U 07004E   24152.38485275 -.00000463  00000+0  00000+0 0  9996
2 30798   7.7003 281.7815 8328178 307.1399   4.4795  0.87833008 59355
FGRST (GLAST)           
1 33053U 08029A   24153.57922445  .00004215  00000+0  19346-3 0  9993
2 33053  25.5828 316.5005 0010074 207.2049 152.7960 15.16719115882209
WISE                    
1 36119U 09071A   24154.09098187  .00053120  00000+0  58170-3 0  9999
2 36119  97.1465 190.4939 0003255 147.0394 213.1069 15.63117588805901
TDRS 11                 
1 39070U 13004A   24153.66256800  .00000081  00000+0  00000+0 0  9992
2 39070   2.7400  11.1487 0006478  45.6578 257.9298  1.00269016 41514
TDRS 12                 
1 39504U 14004A   24153.47443816 -.00000268  00000+0  00000+0 0  9997
2 39504   3.5530   3.0460 0003004 183.3533 193.9758  1.00271111 36808
GPM-CORE                
1 39574U 14009C   24154.17823261  .00017036  00000+0  37131-3 0  9992
2 39574  64.9855 283.3458 0010594 252.5758 107.4224 15.44334991582753
MMS 1                   
1 40482U 15011A   24154.25001157 -.00000189  00000+0  00000+0 0  9990
2 40482  47.3109  12.1352 9100129 145.9318  40.6616  0.28391374 15333
MMS 2                   
1 40483U 15011B   24154.25001157 -.00000189  00000+0  00000+0 0  9991
2 40483  47.3050  12.1292 9100171 145.9387  40.6580  0.28391393 15314
MMS 3                   
1 40484U 15011C   24154.25001157 -.00000189  00000+0  00000+0 0  9992
2 40484  47.3108  12.1313 9100724 145.9412  40.6412  0.28391359 15312
MMS 4                   
1 40485U 15011D   24154.25001157 -.00000189  00000+0  00000+0 0  9993
2 40485  47.3072  12.1364 9099597 145.9373  40.6406  0.28391358 15312
TDRS 13                 
1 42915U 17047A   24153.40870410 -.00000101  00000+0  00000+0 0  9990
2 42915   3.6530 344.3249 0017532 112.8149 288.8916  1.00271444 24879
NOAA 20 (JPSS-1)        
1 43013U 17073A   24154.11779375  .00000100  00000+0  68205-4 0  9990
2 43013  98.7061  92.2916 0000219 114.4613 245.6586 14.19591274338761
